STARLINK-5410           
1 54807U 22175BB  26060.40242719  .00002303  00000+0  16267-3 0  9996
2 54807  53.2176  65.9547 0001357  89.4651 270.6496 15.08849912178888
STARLINK-5413           
1 54808U 22175BC  26060.24379695 -.00000131  00000+0  98588-5 0  9999
2 54808  53.2178  52.2081 0001419  80.1475 279.9677 15.08840883179066
STARLINK-5414           
1 54809U 22175BD  26060.39505189  .00003805  00000+0  25688-3 0  9994
2 54809  53.2178  65.9090 0001449  80.5339 279.5817 15.08860871178884
STARLINK-5408           
1 54810U 22175BE  26060.28330659  .00001477  00000+0  11090-3 0  9997
2 54810  53.2169  61.6277 0001129  87.5246 272.5875 15.08830949178931
STARLINK-5424           
1 54811U 22175BF  26060.37631535  .00011724  00000+0  75307-3 0  9992
2 54811  53.2182  61.4858 0001427  91.1549 268.9607 15.08861579178944
STARLINK-5382           
1 54820U 22177A   26060.38989278 -.00000125  00000+0  58364-5 0  9995
2 54820  43.0016 178.7050 0001304 276.6223  83.4471 15.02534570175708
STARLINK-5385           
1 54821U 22177B   26060.37767417 -.00000779  00000+0 -42611-4 0  9997
2 54821  42.9997 178.6159 0000912 264.9755  95.0983 15.02535714175706
STARLINK-5101           
1 54822U 22177C   26060.37324524  .00000195  00000+0  29496-4 0  9992
2 54822  43.0022 178.5792 0001299 278.1842  81.8853 15.02533535175701
STARLINK-5106           
1 54823U 22177D   26060.38657325  .00000871  00000+0  79558-4 0  9997
2 54823  43.0029 178.6793 0001457 276.3859  83.6818 15.02529053175706
STARLINK-4643           
1 54824U 22177E   26060.31675528  .00000121  00000+0  24003-4 0  9999
2 54824  43.0007 179.0163 0001278 269.0428  91.0268 15.02533288175696
STARLINK-5107           
1 54826U 22177G   26060.37435317  .00000448  00000+0  48237-4 0  9994
2 54826  43.0030 178.5884 0001433 268.1493  91.9185 15.02535168175701
STARLINK-5383           
1 54827U 22177H   26060.36658660  .00000025  00000+0  16914-4 0  9990
2 54827  43.0013 178.5250 0001265 277.8768  82.1931 15.02532231175715
STARLINK-5381           
1 54828U 22177J   26060.36325423  .00000439  00000+0  47578-4 0  9998
2 54828  43.0031 178.5046 0001360 267.6023  92.4664 15.02534266175702
STARLINK-5394           
1 54830U 22177L   26060.35770820  .00004564  00000+0  35294-3 0  9999
2 54830  43.0051 178.4645 0001038 267.4187  92.6536 15.02509582175705
STARLINK-5395           
1 54831U 22177M   26060.44305322  .00000504  00000+0  52391-4 0  9999
2 54831  43.0035 178.2403 0001255 274.6996  85.3703 15.02535022175711
STARLINK-5386           
1 54834U 22177Q   26060.35659570  .00001180  00000+0  10245-3 0  9991
2 54834  43.0020 178.4478 0001448 269.4861  90.5816 15.02533068175710
STARLINK-5389           
1 54835U 22177R   26060.36103918 -.00000514  00000+0 -23012-4 0  9992
2 54835  43.0005 178.4870 0001195 276.9724  83.0982 15.02528808175706
STARLINK-5384           
1 54836U 22177S   26060.50003471  .00071887  00000+0  29616-2 0  9995
2 54836  43.0004 176.2536 0001836 264.0467  35.5935 15.23201401  5819
STARLINK-5369           
1 54837U 22177T   26060.35437700 -.00000068  00000+0  10027-4 0  9997
2 54837  43.0024 178.4370 0001277 278.1946  81.8752 15.02534931175700
STARLINK-5372           
1 54838U 22177U   26058.75096520  .00025668  00000+0  18985-2 0  9991
2 54838  43.0042 187.0473 0002308 265.8314  94.2265 15.02729426175464
STARLINK-5368           
1 54840U 22177W   26060.33624627  .00114222  00000+0  80946-2 0  9997
2 54840  42.9952 178.2904 0007550 308.0700  51.9461 15.03614861175701
STARLINK-4659           
1 54841U 22177X   26060.50003471  .00052107  00000+0  34752-2 0  9992
2 54841  43.0001 177.5605 0001242 289.2384 174.0363 15.06306797  5764
STARLINK-5387           
1 54842U 22177Y   26060.39747087  .00010395  00000+0  78179-3 0  9993
2 54842  43.0024 177.8997 0002885 145.4424 214.6606 15.02613828175715
STARLINK-5304           
1 54843U 22177Z   26060.47546164  .00089212  00000+0  64126-2 0  9996
2 54843  43.0021 177.6241 0001191 258.3228 101.7481 15.03251718175723
STARLINK-5388           
1 54844U 22177AA  26060.39309291  .00001458  00000+0  12298-3 0  9996
2 54844  43.0033 177.8451 0001495 265.0148  95.0524 15.02539093175711
STARLINK-5082           
1 54845U 22177AB  26060.50003471  .00055419  00000+0  36830-2 0  9994
2 54845  43.0018 177.3584 0000464 293.3369 254.7834 15.06412488  5667
STARLINK-5360           
1 54846U 22177AC  26060.45967858  .00112013  00000+0  79821-2 0  9998
2 54846  43.0018 177.5063 0001143 260.0668 100.0046 15.03437185175721
STARLINK-5061           
1 54847U 22177AD  26060.28841257  .00000911  00000+0  82485-4 0  9999
2 54847  43.0027 152.7885 0001314 271.1253  88.9439 15.02532942175997
STARLINK-5432           
1 54848U 22177AE  26060.32811045  .00000451  00000+0  48448-4 0  9997
2 54848  43.0029 166.0854 0001342 265.2729  94.7960 15.02535005175848
STARLINK-5087           
1 54850U 22177AG  26060.32367347 -.00000359  00000+0 -11537-4 0  9999
2 54850  43.0054 166.0532 0001231 275.1561  84.9141 15.02534818175846
