OBJECT_NAME,OBJECT_ID,EPOCH,MEAN_MOTION,ECCENTRICITY,INCLINATION,RA_OF_ASC_NODE,ARG_OF_PERICENTER,MEAN_ANOMALY,EPHEMERIS_TYPE,CLASSIFICATION_TYPE,NORAD_CAT_ID,ELEMENT_SET_NO,REV_AT_EPOCH,BSTAR,MEAN_MOTION_DOT,MEAN_MOTION_DDOT
STARLINK-5410,2022-175BB,2026-03-01T09:39:29.709216,15.08849912,.0001357,53.2176,65.9547,89.4651,270.6496,0,U,54807,999,17888,.16267E-3,.2303E-4,0
STARLINK-5413,2022-175BC,2026-03-01T05:51:04.056480,15.08840883,.0001419,53.2178,52.2081,80.1475,279.9677,0,U,54808,999,17906,.98588E-5,-.131E-5,0
STARLINK-5414,2022-175BD,2026-03-01T09:28:52.483296,15.08860871,.0001449,53.2178,65.9090,80.5339,279.5817,0,U,54809,999,17888,.25688E-3,.3805E-4,0
STARLINK-5408,2022-175BE,2026-03-01T06:47:57.689376,15.08830949,.0001129,53.2169,61.6277,87.5246,272.5875,0,U,54810,999,17893,.1109E-3,.1477E-4,0
STARLINK-5424,2022-175BF,2026-03-01T09:01:53.646240,15.08861579,.0001427,53.2182,61.4858,91.1549,268.9607,0,U,54811,999,17894,.75307E-3,.11724E-3,0
STARLINK-5382,2022-177A,2026-03-01T09:21:26.736192,15.02534570,.0001304,43.0016,178.7050,276.6223,83.4471,0,U,54820,999,17570,.58364E-5,-.125E-5,0
STARLINK-5385,2022-177B,2026-03-01T09:03:51.048288,15.02535714,.0000912,42.9997,178.6159,264.9755,95.0983,0,U,54821,999,17570,-.42611E-4,-.779E-5,0
STARLINK-5101,2022-177C,2026-03-01T08:57:28.388736,15.02533535,.0001299,43.0022,178.5792,278.1842,81.8853,0,U,54822,999,17570,.29496E-4,.195E-5,0
STARLINK-5106,2022-177D,2026-03-01T09:16:39.928800,15.02529053,.0001457,43.0029,178.6793,276.3859,83.6818,0,U,54823,999,17570,.79558E-4,.871E-5,0
STARLINK-4643,2022-177E,2026-03-01T07:36:07.656192,15.02533288,.0001278,43.0007,179.0163,269.0428,91.0268,0,U,54824,999,17569,.24003E-4,.121E-5,0
STARLINK-5107,2022-177G,2026-03-01T08:59:04.113888,15.02535168,.0001433,43.0030,178.5884,268.1493,91.9185,0,U,54826,999,17570,.48237E-4,.448E-5,0
STARLINK-5383,2022-177H,2026-03-01T08:47:53.082240,15.02532231,.0001265,43.0013,178.5250,277.8768,82.1931,0,U,54827,999,17571,.16914E-4,.25E-6,0
STARLINK-5381,2022-177J,2026-03-01T08:43:05.165472,15.02534266,.000136,43.0031,178.5046,267.6023,92.4664,0,U,54828,999,17570,.47578E-4,.439E-5,0
STARLINK-5394,2022-177L,2026-03-01T08:35:05.988480,15.02509582,.0001038,43.0051,178.4645,267.4187,92.6536,0,U,54830,999,17570,.35294E-3,.4564E-4,0
STARLINK-5395,2022-177M,2026-03-01T10:37:59.798208,15.02535022,.0001255,43.0035,178.2403,274.6996,85.3703,0,U,54831,999,17571,.52391E-4,.504E-5,0
STARLINK-5386,2022-177Q,2026-03-01T08:33:29.868480,15.02533068,.0001448,43.0020,178.4478,269.4861,90.5816,0,U,54834,999,17571,.10245E-3,.118E-4,0
STARLINK-5389,2022-177R,2026-03-01T08:39:53.785152,15.02528808,.0001195,43.0005,178.4870,276.9724,83.0982,0,U,54835,999,17570,-.23012E-4,-.514E-5,0
STARLINK-5384,2022-177S,2026-03-01T12:00:02.998944,15.23201401,.0001836,43.0004,176.2536,264.0467,35.5935,0,U,54836,999,581,.29616E-2,.71887E-3,0
STARLINK-5369,2022-177T,2026-03-01T08:30:18.172800,15.02534931,.0001277,43.0024,178.4370,278.1946,81.8752,0,U,54837,999,17570,.10027E-4,-.68E-6,0
STARLINK-5372,2022-177U,2026-02-27T18:01:23.393280,15.02729426,.00023082,43.0042,187.0473,265.8314,94.2265,0,U,54838,999,17546,.18984688E-2,.25668E-3,0
STARLINK-5368,2022-177W,2026-03-01T08:04:11.677728,15.03614861,.000755,42.9952,178.2904,308.0700,51.9461,0,U,54840,999,17570,.80946E-2,.114222E-2,0
STARLINK-4659,2022-177X,2026-03-01T12:00:02.998944,15.06306797,.0001242,43.0001,177.5605,289.2384,174.0363,0,U,54841,999,576,.34752E-2,.52107E-3,0
STARLINK-5387,2022-177Y,2026-03-01T09:32:21.483168,15.02613828,.0002885,43.0024,177.8997,145.4424,214.6606,0,U,54842,999,17571,.78179E-3,.10395E-3,0
STARLINK-5304,2022-177Z,2026-03-01T11:24:39.885696,15.03251718,.0001191,43.0021,177.6241,258.3228,101.7481,0,U,54843,999,17572,.64126E-2,.89212E-3,0
STARLINK-5388,2022-177AA,2026-03-01T09:26:03.227424,15.02539093,.0001495,43.0033,177.8451,265.0148,95.0524,0,U,54844,999,17571,.12298E-3,.1458E-4,0
STARLINK-5082,2022-177AB,2026-03-01T12:00:02.998944,15.06412488,.0000464,43.0018,177.3584,293.3369,254.7834,0,U,54845,999,566,.3683E-2,.55419E-3,0
STARLINK-5360,2022-177AC,2026-03-01T11:01:56.229312,15.03437185,.0001143,43.0018,177.5063,260.0668,100.0046,0,U,54846,999,17572,.79821E-2,.112013E-2,0
STARLINK-5061,2022-177AD,2026-03-01T06:55:18.846048,15.02532942,.0001314,43.0027,152.7885,271.1253,88.9439,0,U,54847,999,17599,.82485E-4,.911E-5,0
STARLINK-5432,2022-177AE,2026-03-01T07:52:28.742880,15.02535005,.0001342,43.0029,166.0854,265.2729,94.7960,0,U,54848,999,17584,.48448E-4,.451E-5,0
STARLINK-5087,2022-177AG,2026-03-01T07:46:05.387808,15.02534818,.0001231,43.0054,166.0532,275.1561,84.9141,0,U,54850,999,17584,-.11537E-4,-.359E-5,0
